[
  {
    "OBJECT_NAME": "STARLINK-31737",
    "OBJECT_ID": "24074D",
    "EPOCH": "2025-11-11T06:21:15.189696",
    "MEAN_MOTION": 15.2762343,
    "ECCENTRICITY": 0.0001232,
    "INCLINATION": 43.0029,
    "RA_OF_ASC_NODE": 292.2562,
    "ARG_OF_PERICENTER": 267.1128,
    "MEAN_ANOMALY": 92.9582,
    "EPHEMERIS_TYPE": 0,
    "CLASSIFICATION_TYPE": "U",
    "NORAD_CAT_ID": 59537,
    "ELEMENT_SET_NO": 999,
    "REV_AT_EPOCH": 8790,
    "BSTAR": 0.0015279999999999998,
    "MEAN_MOTION_DOT": 0.00042081,
    "MEAN_MOTION_DDOT": 0.0,
    "TLE_LINE1": "1 59537U 24074D   25315.26475914  .00042081  00000+0  15280-2 0  9992",
    "TLE_LINE2": "2 59537  43.0029 292.2562 0001232 267.1128  92.9582 15.27623430 87904",
    "COMMENT": "Grouped by shell and plane from TLE"
  },
  {
    "OBJECT_NAME": "STARLINK-31539",
    "OBJECT_ID": "24074F",
    "EPOCH": "2025-11-11T00:21:16.835616",
    "MEAN_MOTION": 15.27588021,
    "ECCENTRICITY": 0.0001712,
    "INCLINATION": 43.006,
    "RA_OF_ASC_NODE": 293.8198,
    "ARG_OF_PERICENTER": 273.1447,
    "MEAN_ANOMALY": 86.9209,
    "EPHEMERIS_TYPE": 0,
    "CLASSIFICATION_TYPE": "U",
    "NORAD_CAT_ID": 59539,
    "ELEMENT_SET_NO": 999,
    "REV_AT_EPOCH": 8786,
    "BSTAR": 0.0,
    "MEAN_MOTION_DOT": -4.54e-06,
    "MEAN_MOTION_DDOT": 0.0,
    "TLE_LINE1": "1 59539U 24074F   25315.01477819 -.00000454  00000+0 -69465-5 0  9990",
    "TLE_LINE2": "2 59539  43.0060 293.8198 0001712 273.1447  86.9209 15.27588021 87867",
    "COMMENT": "Grouped by shell and plane from TLE"
  },
  {
    "OBJECT_NAME": "STARLINK-31397",
    "OBJECT_ID": "24074G",
    "EPOCH": "2025-11-11T00:41:38.414976",
    "MEAN_MOTION": 15.27576026,
    "ECCENTRICITY": 0.0001235,
    "INCLINATION": 43.0038,
    "RA_OF_ASC_NODE": 293.9244,
    "ARG_OF_PERICENTER": 264.9165,
    "MEAN_ANOMALY": 95.1546,
    "EPHEMERIS_TYPE": 0,
    "CLASSIFICATION_TYPE": "U",
    "NORAD_CAT_ID": 59540,
    "ELEMENT_SET_NO": 999,
    "REV_AT_EPOCH": 8786,
    "BSTAR": 9.5522e-05,
    "MEAN_MOTION_DOT": 2.367e-05,
    "MEAN_MOTION_DDOT": 0.0,
    "TLE_LINE1": "1 59540U 24074G   25315.02891684  .00002367  00000+0  95522-4 0  9998",
    "TLE_LINE2": "2 59540  43.0038 293.9244 0001235 264.9165  95.1546 15.27576026 87860",
    "COMMENT": "Grouped by shell and plane from TLE"
  },
  {
    "OBJECT_NAME": "STARLINK-31481",
    "OBJECT_ID": "24074H",
    "EPOCH": "2025-11-11T07:14:42.896832",
    "MEAN_MOTION": 15.27574399,
    "ECCENTRICITY": 7.68e-05,
    "INCLINATION": 42.9999,
    "RA_OF_ASC_NODE": 291.6695,
    "ARG_OF_PERICENTER": 246.7024,
    "MEAN_ANOMALY": 113.3747,
    "EPHEMERIS_TYPE": 0,
    "CLASSIFICATION_TYPE": "U",
    "NORAD_CAT_ID": 59541,
    "ELEMENT_SET_NO": 999,
    "REV_AT_EPOCH": 8791,
    "BSTAR": 9.186900000000001e-05,
    "MEAN_MOTION_DOT": 2.267e-05,
    "MEAN_MOTION_DDOT": 0.0,
    "TLE_LINE1": "1 59541U 24074H   25315.30188538  .00002267  00000+0  91869-4 0  9996",
    "TLE_LINE2": "2 59541  42.9999 291.6695 0000768 246.7024 113.3747 15.27574399 87915",
    "COMMENT": "Grouped by shell and plane from TLE"
  },
  {
    "OBJECT_NAME": "STARLINK-31540",
    "OBJECT_ID": "24074J",
    "EPOCH": "2025-11-10T23:49:50.311488",
    "MEAN_MOTION": 15.27573231,
    "ECCENTRICITY": 0.000118,
    "INCLINATION": 43.0028,
    "RA_OF_ASC_NODE": 293.6512,
    "ARG_OF_PERICENTER": 65.7007,
    "MEAN_ANOMALY": 294.3968,
    "EPHEMERIS_TYPE": 0,
    "CLASSIFICATION_TYPE": "U",
    "NORAD_CAT_ID": 59542,
    "ELEMENT_SET_NO": 999,
    "REV_AT_EPOCH": 8786,
    "BSTAR": 0.00016581,
    "MEAN_MOTION_DOT": 4.302e-05,
    "MEAN_MOTION_DDOT": 0.0,
    "TLE_LINE1": "1 59542U 24074J   25314.99294342  .00004302  00000+0  16581-3 0  9991",
    "TLE_LINE2": "2 59542  43.0028 293.6512 0001180  65.7007 294.3968 15.27573231 87863",
    "COMMENT": "Grouped by shell and plane from TLE"
  },
  {
    "OBJECT_NAME": "STARLINK-31574",
    "OBJECT_ID": "24074K",
    "EPOCH": "2025-11-11T00:26:50.450208",
    "MEAN_MOTION": 15.27583549,
    "ECCENTRICITY": 0.0001103,
    "INCLINATION": 43.006,
    "RA_OF_ASC_NODE": 293.8446,
    "ARG_OF_PERICENTER": 288.2052,
    "MEAN_ANOMALY": 71.868,
    "EPHEMERIS_TYPE": 0,
    "CLASSIFICATION_TYPE": "U",
    "NORAD_CAT_ID": 59543,
    "ELEMENT_SET_NO": 999,
    "REV_AT_EPOCH": 8786,
    "BSTAR": 0.00010812,
    "MEAN_MOTION_DOT": 2.714e-05,
    "MEAN_MOTION_DDOT": 0.0,
    "TLE_LINE1": "1 59543U 24074K   25315.01863947  .00002714  00000+0  10812-3 0  9995",
    "TLE_LINE2": "2 59543  43.0060 293.8446 0001103 288.2052  71.8680 15.27583549 87867",
    "COMMENT": "Grouped by shell and plane from TLE"
  },
  {
    "OBJECT_NAME": "STARLINK-31556",
    "OBJECT_ID": "24074L",
    "EPOCH": "2025-11-11T06:47:08.701440",
    "MEAN_MOTION": 15.27591352,
    "ECCENTRICITY": 0.0001081,
    "INCLINATION": 43.0043,
    "RA_OF_ASC_NODE": 292.3932,
    "ARG_OF_PERICENTER": 275.3997,
    "MEAN_ANOMALY": 84.6731,
    "EPHEMERIS_TYPE": 0,
    "CLASSIFICATION_TYPE": "U",
    "NORAD_CAT_ID": 59544,
    "ELEMENT_SET_NO": 999,
    "REV_AT_EPOCH": 8790,
    "BSTAR": 0.00018534,
    "MEAN_MOTION_DOT": 4.843e-05,
    "MEAN_MOTION_DDOT": 0.0,
    "TLE_LINE1": "1 59544U 24074L   25315.28273960  .00004843  00000+0  18534-3 0  9999",
    "TLE_LINE2": "2 59544  43.0043 292.3932 0001081 275.3997  84.6731 15.27591352 87908",
    "COMMENT": "Grouped by shell and plane from TLE"
  },
  {
    "OBJECT_NAME": "STARLINK-31582",
    "OBJECT_ID": "24074M",
    "EPOCH": "2025-11-11T05:29:39.075936",
    "MEAN_MOTION": 15.27597158,
    "ECCENTRICITY": 0.0001532,
    "INCLINATION": 43.0007,
    "RA_OF_ASC_NODE": 292.8403,
    "ARG_OF_PERICENTER": 275.9334,
    "MEAN_ANOMALY": 84.1343,
    "EPHEMERIS_TYPE": 0,
    "CLASSIFICATION_TYPE": "U",
    "NORAD_CAT_ID": 59545,
    "ELEMENT_SET_NO": 999,
    "REV_AT_EPOCH": 8789,
    "BSTAR": 0.0003466,
    "MEAN_MOTION_DOT": 9.293e-05,
    "MEAN_MOTION_DDOT": 0.0,
    "TLE_LINE1": "1 59545U 24074M   25315.22892449  .00009293  00000+0  34660-3 0  9995",
    "TLE_LINE2": "2 59545  43.0007 292.8403 0001532 275.9334  84.1343 15.27597158 87891",
    "COMMENT": "Grouped by shell and plane from TLE"
  },
  {
    "OBJECT_NAME": "STARLINK-31519",
    "OBJECT_ID": "24074N",
    "EPOCH": "2025-11-11T05:49:47.683200",
    "MEAN_MOTION": 15.27599355,
    "ECCENTRICITY": 8.85e-05,
    "INCLINATION": 43.0017,
    "RA_OF_ASC_NODE": 292.0854,
    "ARG_OF_PERICENTER": 263.0437,
    "MEAN_ANOMALY": 97.0314,
    "EPHEMERIS_TYPE": 0,
    "CLASSIFICATION_TYPE": "U",
    "NORAD_CAT_ID": 59546,
    "ELEMENT_SET_NO": 999,
    "REV_AT_EPOCH": 8790,
    "BSTAR": 0.0003976,
    "MEAN_MOTION_DOT": 0.00010701,
    "MEAN_MOTION_DDOT": 0.0,
    "TLE_LINE1": "1 59546U 24074N   25315.24291300  .00010701  00000+0  39760-3 0  9999",
    "TLE_LINE2": "2 59546  43.0017 292.0854 0000885 263.0437  97.0314 15.27599355 87901",
    "COMMENT": "Grouped by shell and plane from TLE"
  },
  {
    "OBJECT_NAME": "STARLINK-31675",
    "OBJECT_ID": "24074Q",
    "EPOCH": "2025-11-10T23:55:22.873728",
    "MEAN_MOTION": 15.27572975,
    "ECCENTRICITY": 0.0001197,
    "INCLINATION": 43.0044,
    "RA_OF_ASC_NODE": 293.6784,
    "ARG_OF_PERICENTER": 274.1243,
    "MEAN_ANOMALY": 85.9472,
    "EPHEMERIS_TYPE": 0,
    "CLASSIFICATION_TYPE": "U",
    "NORAD_CAT_ID": 59548,
    "ELEMENT_SET_NO": 999,
    "REV_AT_EPOCH": 8786,
    "BSTAR": 0.00012857,
    "MEAN_MOTION_DOT": 3.277e-05,
    "MEAN_MOTION_DDOT": 0.0,
    "TLE_LINE1": "1 59548U 24074Q   25314.99679252  .00003277  00000+0  12857-3 0  9996",
    "TLE_LINE2": "2 59548  43.0044 293.6784 0001197 274.1243  85.9472 15.27572975 87862",
    "COMMENT": "Grouped by shell and plane from TLE"
  },
  {
    "OBJECT_NAME": "STARLINK-31722",
    "OBJECT_ID": "24074R",
    "EPOCH": "2025-11-11T07:18:24.177600",
    "MEAN_MOTION": 15.27596179,
    "ECCENTRICITY": 5.23e-05,
    "INCLINATION": 42.9981,
    "RA_OF_ASC_NODE": 291.6866,
    "ARG_OF_PERICENTER": 298.5059,
    "MEAN_ANOMALY": 61.574,
    "EPHEMERIS_TYPE": 0,
    "CLASSIFICATION_TYPE": "U",
    "NORAD_CAT_ID": 59549,
    "ELEMENT_SET_NO": 999,
    "REV_AT_EPOCH": 8791,
    "BSTAR": 0.00027906,
    "MEAN_MOTION_DOT": 7.429e-05,
    "MEAN_MOTION_DDOT": 0.0,
    "TLE_LINE1": "1 59549U 24074R   25315.30444650  .00007429  00000+0  27906-3 0  9999",
    "TLE_LINE2": "2 59549  42.9981 291.6866 0000523 298.5059  61.5740 15.27596179 87913",
    "COMMENT": "Grouped by shell and plane from TLE"
  },
  {
    "OBJECT_NAME": "STARLINK-31741",
    "OBJECT_ID": "24074S",
    "EPOCH": "2025-11-11T05:55:20.347392",
    "MEAN_MOTION": 15.27597378,
    "ECCENTRICITY": 6.27e-05,
    "INCLINATION": 42.9996,
    "RA_OF_ASC_NODE": 292.1112,
    "ARG_OF_PERICENTER": 268.5476,
    "MEAN_ANOMALY": 91.5304,
    "EPHEMERIS_TYPE": 0,
    "CLASSIFICATION_TYPE": "U",
    "NORAD_CAT_ID": 59550,
    "ELEMENT_SET_NO": 999,
    "REV_AT_EPOCH": 8790,
    "BSTAR": 0.00029194999999999997,
    "MEAN_MOTION_DOT": 7.785e-05,
    "MEAN_MOTION_DDOT": 0.0,
    "TLE_LINE1": "1 59550U 24074S   25315.24676328  .00007785  00000+0  29195-3 0  9990",
    "TLE_LINE2": "2 59550  42.9996 292.1112 0000627 268.5476  91.5304 15.27597378 87906",
    "COMMENT": "Grouped by shell and plane from TLE"
  },
  {
    "OBJECT_NAME": "STARLINK-31699",
    "OBJECT_ID": "24074T",
    "EPOCH": "2025-11-11T06:15:41.918112",
    "MEAN_MOTION": 15.27596633,
    "ECCENTRICITY": 6.88e-05,
    "INCLINATION": 43.0042,
    "RA_OF_ASC_NODE": 292.2241,
    "ARG_OF_PERICENTER": 301.5148,
    "MEAN_ANOMALY": 58.5637,
    "EPHEMERIS_TYPE": 0,
    "CLASSIFICATION_TYPE": "U",
    "NORAD_CAT_ID": 59551,
    "ELEMENT_SET_NO": 999,
    "REV_AT_EPOCH": 8790,
    "BSTAR": 0.00014309,
    "MEAN_MOTION_DOT": 3.68e-05,
    "MEAN_MOTION_DDOT": 0.0,
    "TLE_LINE1": "1 59551U 24074T   25315.26090183  .00003680  00000+0  14309-3 0  9993",
    "TLE_LINE2": "2 59551  43.0042 292.2241 0000688 301.5148  58.5637 15.27596633 87901",
    "COMMENT": "Grouped by shell and plane from TLE"
  }
]